[{"OBJECT_NAME":"BEIDOU-3 M2 (C20)","OBJECT_ID":"2017-069B","EPOCH":"2026-03-04T08:45:56.367072","MEAN_MOTION":1.86230543,"ECCENTRICITY":0.00097094,"INCLINATION":56.5998,"RA_OF_ASC_NODE":66.5715,"ARG_OF_PERICENTER":329.0395,"MEAN_ANOMALY":30.928,"EPHEMERIS_TYPE":0,"CLASSIFICATION_TYPE":"U","NORAD_CAT_ID":43002,"ELEMENT_SET_NO":999,"REV_AT_EPOCH":5664,"BSTAR":0,"MEAN_MOTION_DOT":-2.4e-7,"MEAN_MOTION_DDOT":0},{"OBJECT_NAME":"BEIDOU-3 M7 (C27)","OBJECT_ID":"2018-003A","EPOCH":"2026-03-04T02:34:26.616864","MEAN_MOTION":1.86232236,"ECCENTRICITY":0.00046539,"INCLINATION":54.4212,"RA_OF_ASC_NODE":305.9804,"ARG_OF_PERICENTER":71.0897,"MEAN_ANOMALY":289.0191,"EPHEMERIS_TYPE":0,"CLASSIFICATION_TYPE":"U","NORAD_CAT_ID":43107,"ELEMENT_SET_NO":999,"REV_AT_EPOCH":5539,"BSTAR":0,"MEAN_MOTION_DOT":-6.2e-7,"MEAN_MOTION_DDOT":0},{"OBJECT_NAME":"BEIDOU-3 M8 (C28)","OBJECT_ID":"2018-003B","EPOCH":"2026-03-04T01:16:02.968032","MEAN_MOTION":1.86230762,"ECCENTRICITY":0.00030186,"INCLINATION":54.4138,"RA_OF_ASC_NODE":305.965,"ARG_OF_PERICENTER":293.9658,"MEAN_ANOMALY":66.0612,"EPHEMERIS_TYPE":0,"CLASSIFICATION_TYPE":"U","NORAD_CAT_ID":43108,"ELEMENT_SET_NO":999,"REV_AT_EPOCH":5540,"BSTAR":0,"MEAN_MOTION_DOT":-6.2e-7,"MEAN_MOTION_DDOT":0},{"OBJECT_NAME":"BEIDOU-3 M4 (C22)","OBJECT_ID":"2018-018A","EPOCH":"2026-03-03T10:06:22.837824","MEAN_MOTION":1.86230898,"ECCENTRICITY":0.00068671,"INCLINATION":56.5592,"RA_OF_ASC_NODE":66.6343,"ARG_OF_PERICENTER":350.5022,"MEAN_ANOMALY":9.5144,"EPHEMERIS_TYPE":0,"CLASSIFICATION_TYPE":"U","NORAD_CAT_ID":43207,"ELEMENT_SET_NO":999,"REV_AT_EPOCH":5477,"BSTAR":0,"MEAN_MOTION_DOT":-1.6e-7,"MEAN_MOTION_DDOT":0},{"OBJECT_NAME":"BEIDOU-3 M3 (C21)","OBJECT_ID":"2018-018B","EPOCH":"2026-03-03T11:42:03.914784","MEAN_MOTION":1.8623101,"ECCENTRICITY":0.0009891,"INCLINATION":56.5588,"RA_OF_ASC_NODE":66.6362,"ARG_OF_PERICENTER":319.5859,"MEAN_ANOMALY":40.3698,"EPHEMERIS_TYPE":0,"CLASSIFICATION_TYPE":"U","NORAD_CAT_ID":43208,"ELEMENT_SET_NO":999,"REV_AT_EPOCH":5477,"BSTAR":0,"MEAN_MOTION_DOT":-1.7e-7,"MEAN_MOTION_DDOT":0},{"OBJECT_NAME":"BEIDOU-3 M9 (C29)","OBJECT_ID":"2018-029A","EPOCH":"2026-03-04T05:47:58.433856","MEAN_MOTION":1.86228183,"ECCENTRICITY":9.036e-5,"INCLINATION":54.2883,"RA_OF_ASC_NODE":303.6197,"ARG_OF_PERICENTER":20.1403,"MEAN_ANOMALY":339.9215,"EPHEMERIS_TYPE":0,"CLASSIFICATION_TYPE":"U","NORAD_CAT_ID":43245,"ELEMENT_SET_NO":999,"REV_AT_EPOCH":5394,"BSTAR":0,"MEAN_MOTION_DOT":-5.9e-7,"MEAN_MOTION_DDOT":0},{"OBJECT_NAME":"BEIDOU-3 M10 (C30)","OBJECT_ID":"2018-029B","EPOCH":"2026-03-04T04:14:12.313824","MEAN_MOTION":1.86228884,"ECCENTRICITY":0.00051026,"INCLINATION":54.286,"RA_OF_ASC_NODE":303.6493,"ARG_OF_PERICENTER":23.7928,"MEAN_ANOMALY":336.2892,"EPHEMERIS_TYPE":0,"CLASSIFICATION_TYPE":"U","NORAD_CAT_ID":43246,"ELEMENT_SET_NO":999,"REV_AT_EPOCH":5392,"BSTAR":0,"MEAN_MOTION_DOT":-5.9e-7,"MEAN_MOTION_DDOT":0},{"OBJECT_NAME":"BEIDOU-2 IGSO-7 (C16)","OBJECT_ID":"2018-057A","EPOCH":"2026-02-25T17:45:22.620960","MEAN_MOTION":1.00284731,"ECCENTRICITY":0.00999628,"INCLINATION":55.1859,"RA_OF_ASC_NODE":164.0342,"ARG_OF_PERICENTER":236.5988,"MEAN_ANOMALY":133.5173,"EPHEMERIS_TYPE":0,"CLASSIFICATION_TYPE":"U","NORAD_CAT_ID":43539,"ELEMENT_SET_NO":999,"REV_AT_EPOCH":2801,"BSTAR":0,"MEAN_MOTION_DOT":-1.61e-6,"MEAN_MOTION_DDOT":0},{"OBJECT_NAME":"BEIDOU-3 M5 (C23)","OBJECT_ID":"2018-062A","EPOCH":"2026-03-04T09:36:56.280960","MEAN_MOTION":1.86228677,"ECCENTRICITY":0.00021326,"INCLINATION":54.088,"RA_OF_ASC_NODE":185.8661,"ARG_OF_PERICENTER":310.1519,"MEAN_ANOMALY":49.7918,"EPHEMERIS_TYPE":0,"CLASSIFICATION_TYPE":"U","NORAD_CAT_ID":43581,"ELEMENT_SET_NO":999,"REV_AT_EPOCH":5168,"BSTAR":0,"MEAN_MOTION_DOT":-6.0e-8,"MEAN_MOTION_DDOT":0},{"OBJECT_NAME":"BEIDOU-3 M6 (C24)","OBJECT_ID":"2018-062B","EPOCH":"2026-03-03T17:26:18.514752","MEAN_MOTION":1.86227526,"ECCENTRICITY":0.00062557,"INCLINATION":54.0877,"RA_OF_ASC_NODE":185.8781,"ARG_OF_PERICENTER":44.1915,"MEAN_ANOMALY":315.8167,"EPHEMERIS_TYPE":0,"CLASSIFICATION_TYPE":"U","NORAD_CAT_ID":43582,"ELEMENT_SET_NO":999,"REV_AT_EPOCH":5167,"BSTAR":0,"MEAN_MOTION_DOT":-1.4e-7,"MEAN_MOTION_DDOT":0},{"OBJECT_NAME":"BEIDOU-3 M12 (C26)","OBJECT_ID":"2018-067A","EPOCH":"2026-03-02T14:11:11.114304","MEAN_MOTION":1.86227627,"ECCENTRICITY":0.0008588,"INCLINATION":54.1825,"RA_OF_ASC_NODE":184.6546,"ARG_OF_PERICENTER":39.8197,"MEAN_ANOMALY":320.1981,"EPHEMERIS_TYPE":0,"CLASSIFICATION_TYPE":"U","NORAD_CAT_ID":43602,"ELEMENT_SET_NO":999,"REV_AT_EPOCH":5113,"BSTAR":0,"MEAN_MOTION_DOT":-2.6e-7,"MEAN_MOTION_DDOT":0},{"OBJECT_NAME":"BEIDOU-3 M11 (C25)","OBJECT_ID":"2018-067B","EPOCH":"2026-03-04T08:04:54.183936","MEAN_MOTION":1.86227059,"ECCENTRICITY":0.0004986,"INCLINATION":54.18,"RA_OF_ASC_NODE":184.5593,"ARG_OF_PERICENTER":34.462,"MEAN_ANOMALY":325.5344,"EPHEMERIS_TYPE":0,"CLASSIFICATION_TYPE":"U","NORAD_CAT_ID":43603,"ELEMENT_SET_NO":999,"REV_AT_EPOCH":5119,"BSTAR":0,"MEAN_MOTION_DOT":-6.0e-8,"MEAN_MOTION_DDOT":0},{"OBJECT_NAME":"BEIDOU-3 M13 (C32)","OBJECT_ID":"2018-072A","EPOCH":"2026-03-04T07:01:22.082880","MEAN_MOTION":1.86230786,"ECCENTRICITY":0.00089012,"INCLINATION":56.5327,"RA_OF_ASC_NODE":66.1196,"ARG_OF_PERICENTER":307.6685,"MEAN_ANOMALY":52.2751,"EPHEMERIS_TYPE":0,"CLASSIFICATION_TYPE":"U","NORAD_CAT_ID":43622,"ELEMENT_SET_NO":999,"REV_AT_EPOCH":5070,"BSTAR":0,"MEAN_MOTION_DOT":-2.5e-7,"MEAN_MOTION_DDOT":0},{"OBJECT_NAME":"BEIDOU-3 M14 (C33)","OBJECT_ID":"2018-072B","EPOCH":"2026-03-02T00:14:47.067072","MEAN_MOTION":1.86230813,"ECCENTRICITY":0.00063444,"INCLINATION":56.5324,"RA_OF_ASC_NODE":66.189,"ARG_OF_PERICENTER":328.5825,"MEAN_ANOMALY":31.415,"EPHEMERIS_TYPE":0,"CLASSIFICATION_TYPE":"U","NORAD_CAT_ID":43623,"ELEMENT_SET_NO":999,"REV_AT_EPOCH":5065,"BSTAR":0,"MEAN_MOTION_DOT":-6.0e-8,"MEAN_MOTION_DDOT":0},{"OBJECT_NAME":"BEIDOU-3 M16 (C35)","OBJECT_ID":"2018-078A","EPOCH":"2026-03-02T04:00:42.153984","MEAN_MOTION":1.86232266,"ECCENTRICITY":0.00084346,"INCLINATION":54.1863,"RA_OF_ASC_NODE":303.7392,"ARG_OF_PERICENTER":30.8134,"MEAN_ANOMALY":329.2965,"EPHEMERIS_TYPE":0,"CLASSIFICATION_TYPE":"U","NORAD_CAT_ID":43647,"ELEMENT_SET_NO":999,"REV_AT_EPOCH":5016,"BSTAR":0,"MEAN_MOTION_DOT":-4.8e-7,"MEAN_MOTION_DDOT":0},{"OBJECT_NAME":"BEIDOU-3 M15 (C34)","OBJECT_ID":"2018-078B","EPOCH":"2026-03-03T08:53:18.399840","MEAN_MOTION":1.86232017,"ECCENTRICITY":0.0005342,"INCLINATION":54.1808,"RA_OF_ASC_NODE":303.6975,"ARG_OF_PERICENTER":38.8897,"MEAN_ANOMALY":321.2084,"EPHEMERIS_TYPE":0,"CLASSIFICATION_TYPE":"U","NORAD_CAT_ID":43648,"ELEMENT_SET_NO":999,"REV_AT_EPOCH":5020,"BSTAR":0,"MEAN_MOTION_DOT":-5.5e-7,"MEAN_MOTION_DDOT":0},{"OBJECT_NAME":"BEIDOU-3 G1 (C59)","OBJECT_ID":"2018-085A","EPOCH":"2026-03-04T14:17:51.694944","MEAN_MOTION":1.00268501,"ECCENTRICITY":0.00013487,"INCLINATION":2.8111,"RA_OF_ASC_NODE":100.3795,"ARG_OF_PERICENTER":23.6579,"MEAN_ANOMALY":32.8015,"EPHEMERIS_TYPE":0,"CLASSIFICATION_TYPE":"U","NORAD_CAT_ID":43683,"ELEMENT_SET_NO":999,"REV_AT_EPOCH":2701,"BSTAR":0,"MEAN_MOTION_DOT":-2.88e-6,"MEAN_MOTION_DDOT":0}]
